[{"OBJECT_NAME":"STARLINK-33993","OBJECT_ID":"2025-098Z","EPOCH":"2026-03-09T19:19:59.406816","MEAN_MOTION":14.98390673,"ECCENTRICITY":0.00023778,"INCLINATION":70.0003,"RA_OF_ASC_NODE":273.9954,"ARG_OF_PERICENTER":281.9857,"MEAN_ANOMALY":78.1036,"EPHEMERIS_TYPE":0,"CLASSIFICATION_TYPE":"U","NORAD_CAT_ID":63949,"ELEMENT_SET_NO":999,"REV_AT_EPOCH":4657,"BSTAR":-0.0074293417,"MEAN_MOTION_DOT":-0.00087772,"MEAN_MOTION_DDOT":0},{"OBJECT_NAME":"ELECTRON KICK STAGE R\/B","OBJECT_ID":"2025-229C","EPOCH":"2026-03-09T11:01:34.584384","MEAN_MOTION":15.04670102,"ECCENTRICITY":0.00392514,"INCLINATION":41.9818,"RA_OF_ASC_NODE":119.4948,"ARG_OF_PERICENTER":118.9737,"MEAN_ANOMALY":241.5033,"EPHEMERIS_TYPE":0,"CLASSIFICATION_TYPE":"U","NORAD_CAT_ID":65973,"ELEMENT_SET_NO":999,"REV_AT_EPOCH":2194,"BSTAR":0.00045211532,"MEAN_MOTION_DOT":6.384e-5,"MEAN_MOTION_DDOT":0}]
